STARLINK-30711          
1 57940U 23148F   26068.19969719 -.00000374  00000+0 -50051-6 0  9998
2 57940  53.1624  26.7448 0001269 108.4163 251.6976 15.30189821138343
TEVEL2-2                
1 63219U 25052K   26068.64848259  .00020339  00000+0  69428-3 0  9991
2 63219  97.3987 324.7700 0004693 105.7930 254.3828 15.30343745 54855
